ARIANE 40 R/B           
1 20443U 90005H   25326.58564567  .00000352  00000+0  12564-3 0  9991
2 20443  98.3271  25.3307 0010589 161.2764 198.8816 14.39776360877396
DELTA 2 R/B(1)          
1 20453U 90008B   25325.86744509  .00036592  00000+0  61962-3 0  9992
2 20453  35.6045 155.1048 0115571 347.6144  12.1757 15.43272498909402
COSMOS 2058             
1 20465U 90010A   25326.55096733  .00003578  00000+0  21702-3 0  9990
2 20465  82.4628 152.8926 0009888 353.2566   6.8528 15.10222419926064
SL-14 R/B               
1 20466U 90010B   25326.57737111  .00000463  00000+0  53428-4 0  9996
2 20466  82.5035   7.9830 0018389 294.7279  65.2021 14.83444585912609
SL-14 R/B               
1 20511U 90018B   25326.49223340  .00000482  00000+0  57558-4 0  9999
2 20511  82.5198 323.2919 0017980  85.3878 274.9389 14.82016924906708
HST                     
1 20580U 90037B   25326.34682371  .00008952  00000+0  31369-3 0  9994
2 20580  28.4697  51.2463 0001785  26.3780 333.6906 15.27652107756870
SL-16 R/B               
1 20625U 90046B   25326.59851522  .00000107  00000+0  80047-4 0  9999
2 20625  70.9959 162.8198 0012271 110.7134 249.5305 14.14990465833242
COSMOS 2084             
1 20663U 90055A   25326.50114751  .00002688  00000+0  20119-3 0  9997
2 20663  62.7909 340.9441 0034902 172.2411 187.9237 15.04840433920182
SL-6 R/B(2)             
1 20666U 90055D   25326.20914247  .00003004  00000+0  23677-3 0  9990
2 20666  62.7835 259.1661 0011136 292.0033  67.9882 15.02938472922031
SL-8 R/B                
1 20775U 90078B   25326.58888151  .00021266  00000+0  65739-3 0  9996
2 20775  82.9048 347.3297 0378445  13.4844 347.6145 14.84735265793389
SL-8 R/B                
1 21088U 91006B   25326.35162113  .00000109  00000+0  94492-4 0  9996
2 21088  82.9425 249.8770 0022121 339.5427 140.0075 13.77486409749296
OKEAN-3                 
1 21397U 91039A   25326.39038792  .00004466  00000+0  32146-3 0  9991
2 21397  82.5168  80.7384 0014097 341.4217  18.6492 15.03919152848902
