CCSDS_OMM_VERS = 2.0
CREATION_DATE  = 
ORIGINATOR     = 

OBJECT_NAME    = ARIANE 40 R/B
OBJECT_ID      = 1990-005H
CENTER_NAME    = EARTH
REF_FRAME      = TEME
TIME_SYSTEM    = UTC
MEAN_ELEMENT_THEORY = SGP/SGP4

EPOCH          = 2025-11-22T14:03:19.785888
MEAN_MOTION    = 14.39776360
ECCENTRICITY   = .00105897
INCLINATION    = 98.3271
RA_OF_ASC_NODE = 25.3307
ARG_OF_PERICENTER = 161.2764
MEAN_ANOMALY   = 198.8816

EPHEMERIS_TYPE = 0
CLASSIFICATION_TYPE = U
NORAD_CAT_ID   = 20443
ELEMENT_SET_NO = 999
REV_AT_EPOCH   = 87739
BSTAR          = .12563716E-3
MEAN_MOTION_DOT = .352E-5
MEAN_MOTION_DDOT = 0

CCSDS_OMM_VERS = 2.0
CREATION_DATE  = 
ORIGINATOR     = 

OBJECT_NAME    = DELTA 2 R/B(1)
OBJECT_ID      = 1990-008B
CENTER_NAME    = EARTH
REF_FRAME      = TEME
TIME_SYSTEM    = UTC
MEAN_ELEMENT_THEORY = SGP/SGP4

EPOCH          = 2025-11-21T20:49:07.255776
MEAN_MOTION    = 15.43272498
ECCENTRICITY   = .01155719
INCLINATION    = 35.6045
RA_OF_ASC_NODE = 155.1048
ARG_OF_PERICENTER = 347.6144
MEAN_ANOMALY   = 12.1757

EPHEMERIS_TYPE = 0
CLASSIFICATION_TYPE = U
NORAD_CAT_ID   = 20453
ELEMENT_SET_NO = 999
REV_AT_EPOCH   = 90940
BSTAR          = .61962454E-3
MEAN_MOTION_DOT = .36592E-3
MEAN_MOTION_DDOT = 0

CCSDS_OMM_VERS = 2.0
CREATION_DATE  = 
ORIGINATOR     = 

OBJECT_NAME    = COSMOS 2058
OBJECT_ID      = 1990-010A
CENTER_NAME    = EARTH
REF_FRAME      = TEME
TIME_SYSTEM    = UTC
MEAN_ELEMENT_THEORY = SGP/SGP4

EPOCH          = 2025-11-22T13:13:23.577312
MEAN_MOTION    = 15.10222419
ECCENTRICITY   = .00098887
INCLINATION    = 82.4628
RA_OF_ASC_NODE = 152.8926
ARG_OF_PERICENTER = 353.2566
MEAN_ANOMALY   = 6.8528

EPHEMERIS_TYPE = 0
CLASSIFICATION_TYPE = U
NORAD_CAT_ID   = 20465
ELEMENT_SET_NO = 999
REV_AT_EPOCH   = 92606
BSTAR          = .2170244E-3
MEAN_MOTION_DOT = .3578E-4
MEAN_MOTION_DDOT = 0

CCSDS_OMM_VERS = 2.0
CREATION_DATE  = 
ORIGINATOR     = 

OBJECT_NAME    = SL-14 R/B
OBJECT_ID      = 1990-010B
CENTER_NAME    = EARTH
REF_FRAME      = TEME
TIME_SYSTEM    = UTC
MEAN_ELEMENT_THEORY = SGP/SGP4

EPOCH          = 2025-11-22T13:51:24.863904
MEAN_MOTION    = 14.83444585
ECCENTRICITY   = .00183899
INCLINATION    = 82.5035
RA_OF_ASC_NODE = 7.9830
ARG_OF_PERICENTER = 294.7279
MEAN_ANOMALY   = 65.2021

EPHEMERIS_TYPE = 0
CLASSIFICATION_TYPE = U
NORAD_CAT_ID   = 20466
ELEMENT_SET_NO = 999
REV_AT_EPOCH   = 91260
BSTAR          = .53428277E-4
MEAN_MOTION_DOT = .463E-5
MEAN_MOTION_DDOT = 0

CCSDS_OMM_VERS = 2.0
CREATION_DATE  = 
ORIGINATOR     = 

OBJECT_NAME    = SL-14 R/B
OBJECT_ID      = 1990-018B
CENTER_NAME    = EARTH
REF_FRAME      = TEME
TIME_SYSTEM    = UTC
MEAN_ELEMENT_THEORY = SGP/SGP4

EPOCH          = 2025-11-22T11:48:48.965760
MEAN_MOTION    = 14.82016924
ECCENTRICITY   = .00179808
INCLINATION    = 82.5198
RA_OF_ASC_NODE = 323.2919
ARG_OF_PERICENTER = 85.3878
MEAN_ANOMALY   = 274.9389

EPHEMERIS_TYPE = 0
CLASSIFICATION_TYPE = U
NORAD_CAT_ID   = 20511
ELEMENT_SET_NO = 999
REV_AT_EPOCH   = 90670
BSTAR          = .57557835E-4
MEAN_MOTION_DOT = .482E-5
MEAN_MOTION_DDOT = 0

CCSDS_OMM_VERS = 2.0
CREATION_DATE  = 
ORIGINATOR     = 

OBJECT_NAME    = HST
OBJECT_ID      = 1990-037B
CENTER_NAME    = EARTH
REF_FRAME      = TEME
TIME_SYSTEM    = UTC
MEAN_ELEMENT_THEORY = SGP/SGP4

EPOCH          = 2025-11-22T08:19:25.568544
MEAN_MOTION    = 15.27652107
ECCENTRICITY   = .0001785
INCLINATION    = 28.4697
RA_OF_ASC_NODE = 51.2463
ARG_OF_PERICENTER = 26.3780
MEAN_ANOMALY   = 333.6906

EPHEMERIS_TYPE = 0
CLASSIFICATION_TYPE = U
NORAD_CAT_ID   = 20580
ELEMENT_SET_NO = 999
REV_AT_EPOCH   = 75687
BSTAR          = .31368683E-3
MEAN_MOTION_DOT = .8952E-4
MEAN_MOTION_DDOT = 0

CCSDS_OMM_VERS = 2.0
CREATION_DATE  = 
ORIGINATOR     = 

OBJECT_NAME    = SL-16 R/B
OBJECT_ID      = 1990-046B
CENTER_NAME    = EARTH
REF_FRAME      = TEME
TIME_SYSTEM    = UTC
MEAN_ELEMENT_THEORY = SGP/SGP4

EPOCH          = 2025-11-22T14:21:51.715008
MEAN_MOTION    = 14.14990465
ECCENTRICITY   = .00122717
INCLINATION    = 70.9959
RA_OF_ASC_NODE = 162.8198
ARG_OF_PERICENTER = 110.7134
MEAN_ANOMALY   = 249.5305

EPHEMERIS_TYPE = 0
CLASSIFICATION_TYPE = U
NORAD_CAT_ID   = 20625
ELEMENT_SET_NO = 999
REV_AT_EPOCH   = 83324
BSTAR          = .80046952E-4
MEAN_MOTION_DOT = .107E-5
MEAN_MOTION_DDOT = 0

CCSDS_OMM_VERS = 2.0
CREATION_DATE  = 
ORIGINATOR     = 

OBJECT_NAME    = COSMOS 2084
OBJECT_ID      = 1990-055A
CENTER_NAME    = EARTH
REF_FRAME      = TEME
TIME_SYSTEM    = UTC
MEAN_ELEMENT_THEORY = SGP/SGP4

EPOCH          = 2025-11-22T12:01:39.144864
MEAN_MOTION    = 15.04840433
ECCENTRICITY   = .00349027
INCLINATION    = 62.7909
RA_OF_ASC_NODE = 340.9441
ARG_OF_PERICENTER = 172.2411
MEAN_ANOMALY   = 187.9237

EPHEMERIS_TYPE = 0
CLASSIFICATION_TYPE = U
NORAD_CAT_ID   = 20663
ELEMENT_SET_NO = 999
REV_AT_EPOCH   = 92018
BSTAR          = .20119297E-3
MEAN_MOTION_DOT = .2688E-4
MEAN_MOTION_DDOT = 0

CCSDS_OMM_VERS = 2.0
CREATION_DATE  = 
ORIGINATOR     = 

OBJECT_NAME    = SL-6 R/B(2)
OBJECT_ID      = 1990-055D
CENTER_NAME    = EARTH
REF_FRAME      = TEME
TIME_SYSTEM    = UTC
MEAN_ELEMENT_THEORY = SGP/SGP4

EPOCH          = 2025-11-22T05:01:09.909408
MEAN_MOTION    = 15.02938472
ECCENTRICITY   = .00111365
INCLINATION    = 62.7835
RA_OF_ASC_NODE = 259.1661
ARG_OF_PERICENTER = 292.0033
MEAN_ANOMALY   = 67.9882

EPHEMERIS_TYPE = 0
CLASSIFICATION_TYPE = U
NORAD_CAT_ID   = 20666
ELEMENT_SET_NO = 999
REV_AT_EPOCH   = 92203
BSTAR          = .23677348E-3
MEAN_MOTION_DOT = .3004E-4
MEAN_MOTION_DDOT = 0

CCSDS_OMM_VERS = 2.0
CREATION_DATE  = 
ORIGINATOR     = 

OBJECT_NAME    = SL-8 R/B
OBJECT_ID      = 1990-078B
CENTER_NAME    = EARTH
REF_FRAME      = TEME
TIME_SYSTEM    = UTC
MEAN_ELEMENT_THEORY = SGP/SGP4

EPOCH          = 2025-11-22T14:07:59.362464
MEAN_MOTION    = 14.84735265
ECCENTRICITY   = .03784452
INCLINATION    = 82.9048
RA_OF_ASC_NODE = 347.3297
ARG_OF_PERICENTER = 13.4844
MEAN_ANOMALY   = 347.6145

EPHEMERIS_TYPE = 0
CLASSIFICATION_TYPE = U
NORAD_CAT_ID   = 20775
ELEMENT_SET_NO = 999
REV_AT_EPOCH   = 79338
BSTAR          = .65739486E-3
MEAN_MOTION_DOT = .21266E-3
MEAN_MOTION_DDOT = 0

CCSDS_OMM_VERS = 2.0
CREATION_DATE  = 
ORIGINATOR     = 

OBJECT_NAME    = SL-8 R/B
OBJECT_ID      = 1991-006B
CENTER_NAME    = EARTH
REF_FRAME      = TEME
TIME_SYSTEM    = UTC
MEAN_ELEMENT_THEORY = SGP/SGP4

EPOCH          = 2025-11-22T08:26:20.065632
MEAN_MOTION    = 13.77486409
ECCENTRICITY   = .00221214
INCLINATION    = 82.9425
RA_OF_ASC_NODE = 249.8770
ARG_OF_PERICENTER = 339.5427
MEAN_ANOMALY   = 140.0075

EPHEMERIS_TYPE = 0
CLASSIFICATION_TYPE = U
NORAD_CAT_ID   = 21088
ELEMENT_SET_NO = 999
REV_AT_EPOCH   = 74929
BSTAR          = .9449207E-4
MEAN_MOTION_DOT = .109E-5
MEAN_MOTION_DDOT = 0

CCSDS_OMM_VERS = 2.0
CREATION_DATE  = 
ORIGINATOR     = 

OBJECT_NAME    = OKEAN-3
OBJECT_ID      = 1991-039A
CENTER_NAME    = EARTH
REF_FRAME      = TEME
TIME_SYSTEM    = UTC
MEAN_ELEMENT_THEORY = SGP/SGP4

EPOCH          = 2025-11-22T09:22:09.516288
MEAN_MOTION    = 15.03919152
ECCENTRICITY   = .00140972
INCLINATION    = 82.5168
RA_OF_ASC_NODE = 80.7384
ARG_OF_PERICENTER = 341.4217
MEAN_ANOMALY   = 18.6492

EPHEMERIS_TYPE = 0
CLASSIFICATION_TYPE = U
NORAD_CAT_ID   = 21397
ELEMENT_SET_NO = 999
REV_AT_EPOCH   = 84890
BSTAR          = .32146105E-3
MEAN_MOTION_DOT = .4466E-4
MEAN_MOTION_DDOT = 0

